[
    {
        "OBJECT_NAME": "GSAT0224 (GALILEO 28)",
        "OBJECT_ID": "2021-116B",
        "EPOCH": "2026-06-17T23:38:32.037792",
        "MEAN_MOTION": 1.70475877,
        "ECCENTRICITY": 0.0001177,
        "INCLINATION": 57.1613,
        "RA_OF_ASC_NODE": 341.6514,
        "ARG_OF_PERICENTER": 159.9709,
        "MEAN_ANOMALY": 202.1698,
        "EPHEMERIS_TYPE": 0,
        "CLASSIFICATION_TYPE": "U",
        "NORAD_CAT_ID": 49810,
        "ELEMENT_SET_NO": 999,
        "REV_AT_EPOCH": 2822,
        "BSTAR": 0,
        "MEAN_MOTION_DOT": -9.1e-07,
        "MEAN_MOTION_DDOT": 0
    },
    {
        "OBJECT_NAME": "GSAT0225 (GALILEO 29)",
        "OBJECT_ID": "2024-079A",
        "EPOCH": "2026-06-19T10:45:59.205024",
        "MEAN_MOTION": 1.70473881,
        "ECCENTRICITY": 0.00015339,
        "INCLINATION": 55.1213,
        "RA_OF_ASC_NODE": 101.0165,
        "ARG_OF_PERICENTER": 302.7942,
        "MEAN_ANOMALY": 230.7595,
        "EPHEMERIS_TYPE": 0,
        "CLASSIFICATION_TYPE": "U",
        "NORAD_CAT_ID": 59598,
        "ELEMENT_SET_NO": 999,
        "REV_AT_EPOCH": 1335,
        "BSTAR": 0,
        "MEAN_MOTION_DOT": -1.3e-07,
        "MEAN_MOTION_DDOT": 0
    },
    {
        "OBJECT_NAME": "GSAT0227 (GALILEO 30)",
        "OBJECT_ID": "2024-079C",
        "EPOCH": "2026-06-19T08:22:51.740544",
        "MEAN_MOTION": 1.7047395,
        "ECCENTRICITY": 0.00022017,
        "INCLINATION": 55.1161,
        "RA_OF_ASC_NODE": 101.0181,
        "ARG_OF_PERICENTER": 52.0058,
        "MEAN_ANOMALY": 307.9926,
        "EPHEMERIS_TYPE": 0,
        "CLASSIFICATION_TYPE": "U",
        "NORAD_CAT_ID": 59600,
        "ELEMENT_SET_NO": 999,
        "REV_AT_EPOCH": 1340,
        "BSTAR": 0,
        "MEAN_MOTION_DOT": -1.3e-07,
        "MEAN_MOTION_DDOT": 0
    },
    {
        "OBJECT_NAME": "GSAT0232 (GALILEO 32)",
        "OBJECT_ID": "2024-167A",
        "EPOCH": "2026-06-21T09:19:58.463040",
        "MEAN_MOTION": 1.70474305,
        "ECCENTRICITY": 0.000622,
        "INCLINATION": 55.1837,
        "RA_OF_ASC_NODE": 221.1983,
        "ARG_OF_PERICENTER": 228.6673,
        "MEAN_ANOMALY": 158.706,
        "EPHEMERIS_TYPE": 0,
        "CLASSIFICATION_TYPE": "U",
        "NORAD_CAT_ID": 61182,
        "ELEMENT_SET_NO": 999,
        "REV_AT_EPOCH": 1095,
        "BSTAR": 0,
        "MEAN_MOTION_DOT": 2.9e-07,
        "MEAN_MOTION_DDOT": 0
    },
    {
        "OBJECT_NAME": "GSAT0226 (GALILEO 31)",
        "OBJECT_ID": "2024-167B",
        "EPOCH": "2026-06-21T07:43:09.418656",
        "MEAN_MOTION": 1.70474325,
        "ECCENTRICITY": 0.0003001,
        "INCLINATION": 55.1825,
        "RA_OF_ASC_NODE": 221.2072,
        "ARG_OF_PERICENTER": 231.0582,
        "MEAN_ANOMALY": 206.388,
        "EPHEMERIS_TYPE": 0,
        "CLASSIFICATION_TYPE": "U",
        "NORAD_CAT_ID": 61183,
        "ELEMENT_SET_NO": 999,
        "REV_AT_EPOCH": 1092,
        "BSTAR": 0,
        "MEAN_MOTION_DOT": 2.9e-07,
        "MEAN_MOTION_DDOT": 0
    },
    {
        "OBJECT_NAME": "GSAT0233 (GALILEO 33)",
        "OBJECT_ID": "2025-302A",
        "EPOCH": "2026-06-19T13:54:53.251200",
        "MEAN_MOTION": 1.70473973,
        "ECCENTRICITY": 7.672e-05,
        "INCLINATION": 54.337,
        "RA_OF_ASC_NODE": 102.0625,
        "ARG_OF_PERICENTER": 220.2514,
        "MEAN_ANOMALY": 324.6772,
        "EPHEMERIS_TYPE": 0,
        "CLASSIFICATION_TYPE": "U",
        "NORAD_CAT_ID": 67160,
        "ELEMENT_SET_NO": 999,
        "REV_AT_EPOCH": 316,
        "BSTAR": 0,
        "MEAN_MOTION_DOT": -1.3e-07,
        "MEAN_MOTION_DDOT": 0
    },
    {
        "OBJECT_NAME": "GSAT0234 (GALILEO 34)",
        "OBJECT_ID": "2025-302C",
        "EPOCH": "2026-06-18T02:34:08.632704",
        "MEAN_MOTION": 1.70473903,
        "ECCENTRICITY": 0.00029627,
        "INCLINATION": 54.3376,
        "RA_OF_ASC_NODE": 102.1035,
        "ARG_OF_PERICENTER": 311.0872,
        "MEAN_ANOMALY": 230.0912,
        "EPHEMERIS_TYPE": 0,
        "CLASSIFICATION_TYPE": "U",
        "NORAD_CAT_ID": 67162,
        "ELEMENT_SET_NO": 999,
        "REV_AT_EPOCH": 319,
        "BSTAR": 0,
        "MEAN_MOTION_DOT": -1.2e-07,
        "MEAN_MOTION_DDOT": 0
    }
]